[
    {
        "Altitude(m)": 604983.0529777331,
        "Argument of Periapsis(deg)": 0.0,
        "Eccentricity": 0.0,
        "Inclination(deg)": 60.0,
        "Latitude(deg)": -0.09265505042093897,
        "Longitude(deg)": -164.9160837863263,
        "Mean Anomaly(deg)": 179.99999999999997,
        "RAAN(deg)": 114.99999999999999,
        "Satellite Name": "Test1 517",
        "Satellite Number": 517,
        "Semi-Major Axis(m)": 6980739.136638005,
        "Time(s)": 0
    },
    {
        "Altitude(m)": 605055.3324921648,
        "Argument of Periapsis(deg)": 0.00010418945913296404,
        "Eccentricity": 0.0,
        "Inclination(deg)": 60.0,
        "Latitude(deg)": -0.6330654731848576,
        "Longitude(deg)": -164.64795996709398,
        "Mean Anomaly(deg)": 180.62010614546185,
        "RAAN(deg)": 114.99957995086024,
        "Satellite Name": "Test1 517",
        "Satellite Number": 517,
        "Semi-Major Axis(m)": 6980739.136638005,
        "Time(s)": 10
    },
    {
        "Altitude(m)": 605130.821075114,
        "Argument of Periapsis(deg)": 0.0002083789182659281,
        "Eccentricity": 0.0,
        "Inclination(deg)": 60.0,
        "Latitude(deg)": -1.1734449755130456,
        "Longitude(deg)": -164.3797785100451,
        "Mean Anomaly(deg)": 181.24021229092364,
        "RAAN(deg)": 114.9991599017205,
        "Satellite Name": "Test1 517",
        "Satellite Number": 517,
        "Semi-Major Axis(m)": 6980739.136638005,
        "Time(s)": 20
    },
    {
        "Altitude(m)": 605209.5077632277,
        "Argument of Periapsis(deg)": 0.00031256837739889213,
        "Eccentricity": 0.0,
        "Inclination(deg)": 60.0,
        "Latitude(deg)": -1.7137764770555979,
        "Longitude(deg)": -164.11148502751863,
        "Mean Anomaly(deg)": 181.86031843638548,
        "RAAN(deg)": 114.99873985258075,
        "Satellite Name": "Test1 517",
        "Satellite Number": 517,
        "Semi-Major Axis(m)": 6980739.136638005,
        "Time(s)": 30
    },
    {
        "Altitude(m)": 605291.3800692126,
        "Argument of Periapsis(deg)": 0.0004167578365318562,
        "Eccentricity": 0.0,
        "Inclination(deg)": 60.0,
        "Latitude(deg)": -2.2540428794124763,
        "Longitude(deg)": -163.8430245640615,
        "Mean Anomaly(deg)": 182.48042458184733,
        "RAAN(deg)": 114.99831980344102,
        "Satellite Name": "Test1 517",
        "Satellite Number": 517,
        "Semi-Major Axis(m)": 6980739.136638005,
        "Time(s)": 40
    },
    {
        "Altitude(m)": 605376.4239851905,
        "Argument of Periapsis(deg)": 0.0005209472956648203,
        "Eccentricity": 0.0,
        "Inclination(deg)": 60.0,
        "Latitude(deg)": -2.7942270562202434,
        "Longitude(deg)": -163.57434257300838,
        "Mean Anomaly(deg)": 183.10053072730918,
        "RAAN(deg)": 114.99789975430127,
        "Satellite Name": "Test1 517",
        "Satellite Number": 517,
        "Semi-Major Axis(m)": 6980739.136638005,
        "Time(s)": 50
    },
    {
        "Altitude(m)": 605464.6239867327,
        "Argument of Periapsis(deg)": 0.0006251367547977843,
        "Eccentricity": 0.0,
        "Inclination(deg)": 60.0,
        "Latitude(deg)": -3.33431184320084,
        "Longitude(deg)": -163.3053843801051,
        "Mean Anomaly(deg)": 183.72063687277102,
        "RAAN(deg)": 114.99747970516154,
        "Satellite Name": "Test1 517",
        "Satellite Number": 517,
        "Semi-Major Axis(m)": 6980739.136638005,
        "Time(s)": 60
    },
    {
        "Altitude(m)": 605555.9630376961,
        "Argument of Periapsis(deg)": 0.0007293262139307483,
        "Eccentricity": 0.0,
        "Inclination(deg)": 60.0,
        "Latitude(deg)": -3.874280028157863,
        "Longitude(deg)": -163.0360946470192,
        "Mean Anomaly(deg)": 184.34074301823284,
        "RAAN(deg)": 114.99705965602179,
        "Satellite Name": "Test1 517",
        "Satellite Number": 517,
        "Semi-Major Axis(m)": 6980739.136638005,
        "Time(s)": 70
    },
    {
        "Altitude(m)": 605650.4225957752,
        "Argument of Periapsis(deg)": 0.0008335156730637124,
        "Eccentricity": 0.0,
        "Inclination(deg)": 60.0,
        "Latitude(deg)": -4.414114340902308,
        "Longitude(deg)": -162.76641834758348,
        "Mean Anomaly(deg)": 184.96084916369463,
        "RAAN(deg)": 114.99663960688207,
        "Satellite Name": "Test1 517",
        "Satellite Number": 517,
        "Semi-Major Axis(m)": 6980739.136638005,
        "Time(s)": 80
    },
    {
        "Altitude(m)": 605747.9826188182,
        "Argument of Periapsis(deg)": 0.0009377051321966765,
        "Eccentricity": 0.0,
        "Inclination(deg)": 60.0,
        "Latitude(deg)": -4.953797443100663,
        "Longitude(deg)": -162.4963002309967,
        "Mean Anomaly(deg)": 185.58095530915645,
        "RAAN(deg)": 114.99621955774231,
        "Satellite Name": "Test1 517",
        "Satellite Number": 517,
        "Semi-Major Axis(m)": 6980739.136638005,
        "Time(s)": 90
    },
    {
        "Altitude(m)": 605848.6215718549,
        "Argument of Periapsis(deg)": 0.0010418945913296407,
        "Eccentricity": 0.0,
        "Inclination(deg)": 60.0,
        "Latitude(deg)": -5.493311918029409,
        "Longitude(deg)": -162.22568428482404,
        "Mean Anomaly(deg)": 186.2010614546183,
        "RAAN(deg)": 114.99579950860259,
        "Satellite Name": "Test1 517",
        "Satellite Number": 517,
        "Semi-Major Axis(m)": 6980739.136638005,
        "Time(s)": 100
    },
    {
        "Altitude(m)": 605952.3164348791,
        "Argument of Periapsis(deg)": 0.0011460840504626045,
        "Eccentricity": 0.0,
        "Inclination(deg)": 60.0,
        "Latitude(deg)": -6.032640260218062,
        "Longitude(deg)": -161.95451471064513,
        "Mean Anomaly(deg)": 186.82116760008014,
        "RAAN(deg)": 114.99537945946282,
        "Satellite Name": "Test1 517",
        "Satellite Number": 517,
        "Semi-Major Axis(m)": 6980739.136638005,
        "Time(s)": 110
    },
    {
        "Altitude(m)": 606059.0427113562,
        "Argument of Periapsis(deg)": 0.0012502735095955685,
        "Eccentricity": 0.0,
        "Inclination(deg)": 60.0,
        "Latitude(deg)": -6.571764864973021,
        "Longitude(deg)": -161.68273538657098,
        "Mean Anomaly(deg)": 187.44127374554193,
        "RAAN(deg)": 114.9949594103231,
        "Satellite Name": "Test1 517",
        "Satellite Number": 517,
        "Semi-Major Axis(m)": 6980739.136638005,
        "Time(s)": 120
    },
    {
        "Altitude(m)": 606168.7744374642,
        "Argument of Periapsis(deg)": 0.0013544629687285324,
        "Eccentricity": 0.0,
        "Inclination(deg)": 60.0,
        "Latitude(deg)": -7.110668017765348,
        "Longitude(deg)": -161.41028932947535,
        "Mean Anomaly(deg)": 188.06137989100384,
        "RAAN(deg)": 114.99453936118334,
        "Satellite Name": "Test1 517",
        "Satellite Number": 517,
        "Semi-Major Axis(m)": 6980739.136638005,
        "Time(s)": 130
    },
    {
        "Altitude(m)": 606281.4841920314,
        "Argument of Periapsis(deg)": 0.0014586524278614966,
        "Eccentricity": 0.0,
        "Inclination(deg)": 60.0,
        "Latitude(deg)": -7.649331883464923,
        "Longitude(deg)": -161.1371196697849,
        "Mean Anomaly(deg)": 188.68148603646563,
        "RAAN(deg)": 114.99411931204362,
        "Satellite Name": "Test1 517",
        "Satellite Number": 517,
        "Semi-Major Axis(m)": 6980739.136638005,
        "Time(s)": 140
    },
    {
        "Altitude(m)": 606397.143107222,
        "Argument of Periapsis(deg)": 0.0015628418869944607,
        "Eccentricity": 0.0,
        "Inclination(deg)": 60.0,
        "Latitude(deg)": -8.187738495412201,
        "Longitude(deg)": -160.86316911305164,
        "Mean Anomaly(deg)": 189.30159218192748,
        "RAAN(deg)": 114.99369926290385,
        "Satellite Name": "Test1 517",
        "Satellite Number": 517,
        "Semi-Major Axis(m)": 6980739.136638005,
        "Time(s)": 150
    },
    {
        "Altitude(m)": 606515.7208799161,
        "Argument of Periapsis(deg)": 0.0016670313461274247,
        "Eccentricity": 0.0,
        "Inclination(deg)": 60.0,
        "Latitude(deg)": -8.725869744309394,
        "Longitude(deg)": -160.5883794011525,
        "Mean Anomaly(deg)": 189.92169832738932,
        "RAAN(deg)": 114.99327921376414,
        "Satellite Name": "Test1 517",
        "Satellite Number": 517,
        "Semi-Major Axis(m)": 6980739.136638005,
        "Time(s)": 160
    },
    {
        "Altitude(m)": 606637.1857837749,
        "Argument of Periapsis(deg)": 0.0017712208052603888,
        "Eccentricity": 0.0,
        "Inclination(deg)": 60.0,
        "Latitude(deg)": -9.263707366914048,
        "Longitude(deg)": -160.31269228595926,
        "Mean Anomaly(deg)": 190.54180447285114,
        "RAAN(deg)": 114.99285916462436,
        "Satellite Name": "Test1 517",
        "Satellite Number": 517,
        "Semi-Major Axis(m)": 6980739.136638005,
        "Time(s)": 170
    },
    {
        "Altitude(m)": 606761.5046820447,
        "Argument of Periapsis(deg)": 0.001875410264393353,
        "Eccentricity": 0.0,
        "Inclination(deg)": 60.0,
        "Latitude(deg)": -9.80123293452413,
        "Longitude(deg)": -160.0360489897036,
        "Mean Anomaly(deg)": 191.16191061831293,
        "RAAN(deg)": 114.99243911548463,
        "Satellite Name": "Test1 517",
        "Satellite Number": 517,
        "Semi-Major Axis(m)": 6980739.136638005,
        "Time(s)": 180
    },
    {
        "Altitude(m)": 606888.643041023,
        "Argument of Periapsis(deg)": 0.0019795997235263173,
        "Eccentricity": 0.0,
        "Inclination(deg)": 60.0,
        "Latitude(deg)": -10.338427841236534,
        "Longitude(deg)": -159.75838966488084,
        "Mean Anomaly(deg)": 191.78201676377475,
        "RAAN(deg)": 114.99201906634488,
        "Satellite Name": "Test1 517",
        "Satellite Number": 517,
        "Semi-Major Axis(m)": 6980739.136638005,
        "Time(s)": 190
    }
]